<kml xmlns="http://www.opengis.net/kml/2.2" xmlns:gx="http://www.google.com/kml/ext/2.2" xmlns:xsi="http://www.w3.org/2001/XMLSchema-instance" xsi:schemaLocation="http://www.opengis.net/kml/2.2 https://developers.google.com/kml/schema/kml22gx.xsd"><Placemark><LineString><coordinates>23.08024978742469,43.1892484360267 23.079151153040584,43.18954881349913 23.078670503280595,43.18927346743976 23.07798385777278,43.189348562094665 23.077674866770394,43.186544967240906 23.076644898508675,43.18504298855845 23.075958253000863,43.183816345315904 23.076095582626294,43.18299022487986 23.076301575754773,43.18158829705516 23.07698822126258,43.18058690073721 23.075580598495435,43.18046172504259 23.0764389053802,43.179134847092854 23.07705688476563,43.1776076501485 23.07705688476563,43.176681296631784 23.078327180526685,43.175604710512545 23.078361512278207,43.1750789283538 23.078052521275822,43.174728403762884 23.079700471542314,43.17330124756606 23.081623078440316,43.17232475536943 23.083030701207463,43.17214948446605 23.081691741943363,43.172274677201074 23.08045578055317,43.17297575253875 23.078979491663635,43.17370185738778 23.078155519149735,43.17465329040661 23.076095582626294,43.174878628288155 23.075820923375435,43.17628071017552 23.073314666224178,43.17645596731228 23.070018768310547,43.176681296631784 23.068954468297306,43.175003815428624 23.066860200022347,43.17465329040661 23.063770293927522,43.17460321605785 23.06208801321918,43.17505388944889 23.06040573120117,43.17482855412422 23.059341431187935,43.17410246267136 23.055290222953772,43.17315101916057 23.054569244384762,43.173176056935404 23.05316162161762,43.17355162805745 23.051891327166235,43.17390215940293</coordinates></LineString></Placemark></kml>